[{"OBJECT_NAME":"STARLINK-30985","OBJECT_ID":"2023-186W","EPOCH":"2026-03-02T03:10:13.922976","MEAN_MOTION":15.2674385,"ECCENTRICITY":0.0002021,"INCLINATION":43.0079,"RA_OF_ASC_NODE":106.0499,"ARG_OF_PERICENTER":261.5725,"MEAN_ANOMALY":98.4897,"EPHEMERIS_TYPE":0,"CLASSIFICATION_TYPE":"U","NORAD_CAT_ID":58493,"ELEMENT_SET_NO":999,"REV_AT_EPOCH":12473,"BSTAR":-5.5165e-6,"MEAN_MOTION_DOT":-4.08e-6,"MEAN_MOTION_DDOT":0},{"OBJECT_NAME":"STARLINK-30981","OBJECT_ID":"2023-186X","EPOCH":"2026-03-02T03:10:24.861216","MEAN_MOTION":15.27572821,"ECCENTRICITY":0.0001565,"INCLINATION":43.0024,"RA_OF_ASC_NODE":106.0453,"ARG_OF_PERICENTER":267.4692,"MEAN_ANOMALY":92.598,"EPHEMERIS_TYPE":0,"CLASSIFICATION_TYPE":"U","NORAD_CAT_ID":58494,"ELEMENT_SET_NO":999,"REV_AT_EPOCH":12473,"BSTAR":-6.6025e-5,"MEAN_MOTION_DOT":-2.078e-5,"MEAN_MOTION_DDOT":0},{"OBJECT_NAME":"STARLINK-31002","OBJECT_ID":"2023-186Y","EPOCH":"2026-03-02T04:00:01.999584","MEAN_MOTION":15.26822359,"ECCENTRICITY":8.86e-5,"INCLINATION":42.9999,"RA_OF_ASC_NODE":106.3648,"ARG_OF_PERICENTER":136.255,"MEAN_ANOMALY":195.2046,"EPHEMERIS_TYPE":0,"CLASSIFICATION_TYPE":"U","NORAD_CAT_ID":58495,"ELEMENT_SET_NO":999,"REV_AT_EPOCH":567,"BSTAR":0.023576,"MEAN_MOTION_DOT":0.00677548,"MEAN_MOTION_DDOT":0},{"OBJECT_NAME":"STARLINK-31026","OBJECT_ID":"2023-191A","EPOCH":"2026-03-01T17:52:37.284672","MEAN_MOTION":15.02542969,"ECCENTRICITY":0.00013927,"INCLINATION":43.0027,"RA_OF_ASC_NODE":150.2303,"ARG_OF_PERICENTER":269.5198,"MEAN_ANOMALY":90.5484,"EPHEMERIS_TYPE":0,"CLASSIFICATION_TYPE":"U","NORAD_CAT_ID":58508,"ELEMENT_SET_NO":999,"REV_AT_EPOCH":12423,"BSTAR":4.179217e-5,"MEAN_MOTION_DOT":3.61e-6,"MEAN_MOTION_DDOT":0},{"OBJECT_NAME":"STARLINK-31020","OBJECT_ID":"2023-191B","EPOCH":"2026-03-01T22:35:10.683168","MEAN_MOTION":15.02539895,"ECCENTRICITY":0.0001412,"INCLINATION":43.0023,"RA_OF_ASC_NODE":149.9725,"ARG_OF_PERICENTER":267.5715,"MEAN_ANOMALY":92.4966,"EPHEMERIS_TYPE":0,"CLASSIFICATION_TYPE":"U","NORAD_CAT_ID":58509,"ELEMENT_SET_NO":999,"REV_AT_EPOCH":12425,"BSTAR":0.00010905,"MEAN_MOTION_DOT":1.27e-5,"MEAN_MOTION_DDOT":0},{"OBJECT_NAME":"STARLINK-30989","OBJECT_ID":"2023-191C","EPOCH":"2026-03-02T04:00:01.999584","MEAN_MOTION":15.26704929,"ECCENTRICITY":5.49e-5,"INCLINATION":43.0004,"RA_OF_ASC_NODE":146.1418,"ARG_OF_PERICENTER":277.1889,"MEAN_ANOMALY":247.1724,"EPHEMERIS_TYPE":0,"CLASSIFICATION_TYPE":"U","NORAD_CAT_ID":58510,"ELEMENT_SET_NO":999,"REV_AT_EPOCH":582,"BSTAR":0.0024424,"MEAN_MOTION_DOT":0.0006577,"MEAN_MOTION_DDOT":0},{"OBJECT_NAME":"STARLINK-30968","OBJECT_ID":"2023-191D","EPOCH":"2026-03-02T04:00:01.999584","MEAN_MOTION":15.2666799,"ECCENTRICITY":0.0001804,"INCLINATION":43.0005,"RA_OF_ASC_NODE":146.1932,"ARG_OF_PERICENTER":291.9903,"MEAN_ANOMALY":208.3537,"EPHEMERIS_TYPE":0,"CLASSIFICATION_TYPE":"U","NORAD_CAT_ID":58511,"ELEMENT_SET_NO":999,"REV_AT_EPOCH":572,"BSTAR":0.0031948,"MEAN_MOTION_DOT":0.00086256,"MEAN_MOTION_DDOT":0},{"OBJECT_NAME":"STARLINK-30982","OBJECT_ID":"2023-191E","EPOCH":"2026-03-02T04:00:01.999584","MEAN_MOTION":15.2548779,"ECCENTRICITY":7.97e-5,"INCLINATION":43.0006,"RA_OF_ASC_NODE":146.2418,"ARG_OF_PERICENTER":331.2699,"MEAN_ANOMALY":148.4708,"EPHEMERIS_TYPE":0,"CLASSIFICATION_TYPE":"U","NORAD_CAT_ID":58512,"ELEMENT_SET_NO":999,"REV_AT_EPOCH":572,"BSTAR":0.064025,"MEAN_MOTION_DOT":0.01816496,"MEAN_MOTION_DDOT":0},{"OBJECT_NAME":"STARLINK-30998","OBJECT_ID":"2023-191F","EPOCH":"2026-03-02T04:00:01.999584","MEAN_MOTION":15.26705198,"ECCENTRICITY":0.0001102,"INCLINATION":43.0022,"RA_OF_ASC_NODE":146.0287,"ARG_OF_PERICENTER":261.1508,"MEAN_ANOMALY":309.4626,"EPHEMERIS_TYPE":0,"CLASSIFICATION_TYPE":"U","NORAD_CAT_ID":58513,"ELEMENT_SET_NO":999,"REV_AT_EPOCH":566,"BSTAR":0.0021764,"MEAN_MOTION_DOT":0.00058523,"MEAN_MOTION_DDOT":0},{"OBJECT_NAME":"STARLINK-30983","OBJECT_ID":"2023-191G","EPOCH":"2026-03-02T04:00:01.999584","MEAN_MOTION":15.23948892,"ECCENTRICITY":0.0001304,"INCLINATION":43.0017,"RA_OF_ASC_NODE":145.7714,"ARG_OF_PERICENTER":267.5913,"MEAN_ANOMALY":50.6226,"EPHEMERIS_TYPE":0,"CLASSIFICATION_TYPE":"U","NORAD_CAT_ID":58514,"ELEMENT_SET_NO":999,"REV_AT_EPOCH":576,"BSTAR":0.050386,"MEAN_MOTION_DOT":0.01349014,"MEAN_MOTION_DDOT":0},{"OBJECT_NAME":"STARLINK-31017","OBJECT_ID":"2023-191H","EPOCH":"2026-03-02T00:05:25.779840","MEAN_MOTION":15.27580795,"ECCENTRICITY":0.0001335,"INCLINATION":43.0014,"RA_OF_ASC_NODE":274.5651,"ARG_OF_PERICENTER":259.7981,"MEAN_ANOMALY":100.272,"EPHEMERIS_TYPE":0,"CLASSIFICATION_TYPE":"U","NORAD_CAT_ID":58515,"ELEMENT_SET_NO":999,"REV_AT_EPOCH":12700,"BSTAR":6.797e-5,"MEAN_MOTION_DOT":1.609e-5,"MEAN_MOTION_DDOT":0},{"OBJECT_NAME":"STARLINK-31028","OBJECT_ID":"2023-191J","EPOCH":"2026-03-02T04:00:01.999584","MEAN_MOTION":15.2672459,"ECCENTRICITY":0.0001548,"INCLINATION":43.0006,"RA_OF_ASC_NODE":145.4818,"ARG_OF_PERICENTER":267.974,"MEAN_ANOMALY":171.3031,"EPHEMERIS_TYPE":0,"CLASSIFICATION_TYPE":"U","NORAD_CAT_ID":58516,"ELEMENT_SET_NO":999,"REV_AT_EPOCH":561,"BSTAR":0.001765,"MEAN_MOTION_DOT":0.00047366,"MEAN_MOTION_DDOT":0},{"OBJECT_NAME":"STARLINK-31011","OBJECT_ID":"2023-191K","EPOCH":"2026-03-02T00:00:01.999296","MEAN_MOTION":15.26767395,"ECCENTRICITY":0.0001361,"INCLINATION":43.0009,"RA_OF_ASC_NODE":146.4138,"ARG_OF_PERICENTER":272.0143,"MEAN_ANOMALY":335.9471,"EPHEMERIS_TYPE":0,"CLASSIFICATION_TYPE":"U","NORAD_CAT_ID":58517,"ELEMENT_SET_NO":999,"REV_AT_EPOCH":563,"BSTAR":-0.00022902,"MEAN_MOTION_DOT":-6.403e-5,"MEAN_MOTION_DDOT":0},{"OBJECT_NAME":"STARLINK-31021","OBJECT_ID":"2023-191L","EPOCH":"2026-03-02T04:00:01.999584","MEAN_MOTION":15.19985617,"ECCENTRICITY":0.0001742,"INCLINATION":43.0008,"RA_OF_ASC_NODE":145.8388,"ARG_OF_PERICENTER":279.1997,"MEAN_ANOMALY":359.2447,"EPHEMERIS_TYPE":0,"CLASSIFICATION_TYPE":"U","NORAD_CAT_ID":58518,"ELEMENT_SET_NO":999,"REV_AT_EPOCH":577,"BSTAR":0.097974,"MEAN_MOTION_DOT":0.02391091,"MEAN_MOTION_DDOT":0},{"OBJECT_NAME":"STARLINK-31010","OBJECT_ID":"2023-191M","EPOCH":"2026-03-02T04:00:01.999584","MEAN_MOTION":15.19365205,"ECCENTRICITY":0.0001793,"INCLINATION":43.0001,"RA_OF_ASC_NODE":145.8998,"ARG_OF_PERICENTER":257.218,"MEAN_ANOMALY":340.8592,"EPHEMERIS_TYPE":0,"CLASSIFICATION_TYPE":"U","NORAD_CAT_ID":58519,"ELEMENT_SET_NO":999,"REV_AT_EPOCH":577,"BSTAR":0.10276,"MEAN_MOTION_DOT":0.02472358,"MEAN_MOTION_DDOT":0},{"OBJECT_NAME":"STARLINK-31003","OBJECT_ID":"2023-191N","EPOCH":"2026-03-02T04:00:01.999584","MEAN_MOTION":15.26707458,"ECCENTRICITY":0.0001302,"INCLINATION":43.0007,"RA_OF_ASC_NODE":145.493,"ARG_OF_PERICENTER":237.9378,"MEAN_ANOMALY":199.1235,"EPHEMERIS_TYPE":0,"CLASSIFICATION_TYPE":"U","NORAD_CAT_ID":58520,"ELEMENT_SET_NO":999,"REV_AT_EPOCH":571,"BSTAR":0.0025804,"MEAN_MOTION_DOT":0.00069542,"MEAN_MOTION_DDOT":0},{"OBJECT_NAME":"STARLINK-31015","OBJECT_ID":"2023-191P","EPOCH":"2026-03-02T04:00:01.999584","MEAN_MOTION":15.26705944,"ECCENTRICITY":0.000128,"INCLINATION":43.0004,"RA_OF_ASC_NODE":145.4739,"ARG_OF_PERICENTER":277.4495,"MEAN_ANOMALY":168.8014,"EPHEMERIS_TYPE":0,"CLASSIFICATION_TYPE":"U","NORAD_CAT_ID":58521,"ELEMENT_SET_NO":999,"REV_AT_EPOCH":576,"BSTAR":0.0019781,"MEAN_MOTION_DOT":0.00053127,"MEAN_MOTION_DDOT":0}]
