STARLINK-30985          
1 58493U 23186W   26061.13210559 -.00000408  00000+0 -55165-5 0  9990
2 58493  43.0079 106.0499 0002021 261.5725  98.4897 15.26743850124739
STARLINK-30981          
1 58494U 23186X   26061.13223219 -.00002078  00000+0 -66025-4 0  9999
2 58494  43.0024 106.0453 0001565 267.4692  92.5980 15.27572821124737
STARLINK-31002          
1 58495U 23186Y   26061.16668981  .00677548  00000+0  23576-1 0  9991
2 58495  42.9999 106.3648 0000886 136.2550 195.2046 15.26822359  5675
STARLINK-31026          
1 58508U 23191A   26060.74487598  .00000361  00000+0  41792-4 0  9994
2 58508  43.0027 150.2303 0001392 269.5198  90.5484 15.02542969124238
STARLINK-31020          
1 58509U 23191B   26060.94109587  .00001270  00000+0  10905-3 0  9997
2 58509  43.0023 149.9725 0001412 267.5715  92.4966 15.02539895124256
STARLINK-30989          
1 58510U 23191C   26061.16668981  .00065770  00000+0  24424-2 0  9997
2 58510  43.0004 146.1418 0000549 277.1889 247.1724 15.26704929  5824
STARLINK-30968          
1 58511U 23191D   26061.16668981  .00086256  00000+0  31948-2 0  9999
2 58511  43.0005 146.1932 0001804 291.9903 208.3537 15.26667990  5729
STARLINK-30982          
1 58512U 23191E   26061.16668981  .01816496  00000+0  64025-1 0  9999
2 58512  43.0006 146.2418 0000797 331.2699 148.4708 15.25487790  5722
STARLINK-30998          
1 58513U 23191F   26061.16668981  .00058523  00000+0  21764-2 0  9992
2 58513  43.0022 146.0287 0001102 261.1508 309.4626 15.26705198  5661
STARLINK-30983          
1 58514U 23191G   26061.16668981  .01349014  00000+0  50386-1 0  9993
2 58514  43.0017 145.7714 0001304 267.5913  50.6226 15.23948892  5760
STARLINK-31017          
1 58515U 23191H   26061.00377060  .00001609  00000+0  67970-4 0  9996
2 58515  43.0014 274.5651 0001335 259.7981 100.2720 15.27580795127002
STARLINK-31028          
1 58516U 23191J   26061.16668981  .00047366  00000+0  17650-2 0  9997
2 58516  43.0006 145.4818 0001548 267.9740 171.3031 15.26724590  5613
STARLINK-31011          
1 58517U 23191K   26061.00002314 -.00006403  00000+0 -22902-3 0  9999
2 58517  43.0009 146.4138 0001361 272.0143 335.9471 15.26767395  5638
STARLINK-31021          
1 58518U 23191L   26061.16668981  .02391091  00000+0  97974-1 0  9994
2 58518  43.0008 145.8388 0001742 279.1997 359.2447 15.19985617  5774
STARLINK-31010          
1 58519U 23191M   26061.16668981  .02472358  00000+0  10276+0 0  9999
2 58519  43.0001 145.8998 0001793 257.2180 340.8592 15.19365205  5774
STARLINK-31003          
1 58520U 23191N   26061.16668981  .00069542  00000+0  25804-2 0  9992
2 58520  43.0007 145.4930 0001302 237.9378 199.1235 15.26707458  5715
STARLINK-31015          
1 58521U 23191P   26061.16668981  .00053127  00000+0  19781-2 0  9992
2 58521  43.0004 145.4739 0001280 277.4495 168.8014 15.26705944  5765
